[{"OBJECT_NAME":"RS-44 & BREEZE-KM R\/B","OBJECT_ID":"2019-096E","EPOCH":"2026-03-09T22:49:16.851072","MEAN_MOTION":12.79747411,"ECCENTRICITY":0.0217918,"INCLINATION":82.5202,"RA_OF_ASC_NODE":45.6405,"ARG_OF_PERICENTER":16.7093,"MEAN_ANOMALY":344.1042,"EPHEMERIS_TYPE":0,"CLASSIFICATION_TYPE":"U","NORAD_CAT_ID":44909,"ELEMENT_SET_NO":999,"REV_AT_EPOCH":28965,"BSTAR":3.908443e-5,"MEAN_MOTION_DOT":2.1e-7,"MEAN_MOTION_DDOT":0},{"OBJECT_NAME":"COSMOS 886 DEB","OBJECT_ID":"1976-126BQ","EPOCH":"2026-03-04T10:36:01.743840","MEAN_MOTION":12.32160254,"ECCENTRICITY":0.10060939,"INCLINATION":65.8547,"RA_OF_ASC_NODE":227.958,"ARG_OF_PERICENTER":284.0267,"MEAN_ANOMALY":65.1021,"EPHEMERIS_TYPE":0,"CLASSIFICATION_TYPE":"U","NORAD_CAT_ID":14503,"ELEMENT_SET_NO":999,"REV_AT_EPOCH":56050,"BSTAR":0.00068630926,"MEAN_MOTION_DOT":4.2e-6,"MEAN_MOTION_DDOT":0}]
